[{"OBJECT_NAME":"ISS (ZARYA)","OBJECT_ID":"1998-067A","EPOCH":"2026-03-24T03:55:35.551488","MEAN_MOTION":15.48514008,"ECCENTRICITY":0.00062677,"INCLINATION":51.6345,"RA_OF_ASC_NODE":0.8084,"ARG_OF_PERICENTER":226.2093,"MEAN_ANOMALY":133.8378,"EPHEMERIS_TYPE":0,"CLASSIFICATION_TYPE":"U","NORAD_CAT_ID":25544,"ELEMENT_SET_NO":999,"REV_AT_EPOCH":55857,"BSTAR":0.0002692749,"MEAN_MOTION_DOT":0.0001417,"MEAN_MOTION_DDOT":0},{"OBJECT_NAME":"POISK","OBJECT_ID":"2009-060A","EPOCH":"2026-03-24T03:55:35.551488","MEAN_MOTION":15.48514008,"ECCENTRICITY":0.00062677,"INCLINATION":51.6345,"RA_OF_ASC_NODE":0.8084,"ARG_OF_PERICENTER":226.2093,"MEAN_ANOMALY":133.8378,"EPHEMERIS_TYPE":0,"CLASSIFICATION_TYPE":"U","NORAD_CAT_ID":36086,"ELEMENT_SET_NO":999,"REV_AT_EPOCH":55743,"BSTAR":0.0002692749,"MEAN_MOTION_DOT":0.0001417,"MEAN_MOTION_DDOT":0},{"OBJECT_NAME":"CSS (TIANHE)","OBJECT_ID":"2021-035A","EPOCH":"2026-03-24T05:42:53.103168","MEAN_MOTION":15.61417953,"ECCENTRICITY":0.0004823,"INCLINATION":41.4662,"RA_OF_ASC_NODE":119.5892,"ARG_OF_PERICENTER":8.9107,"MEAN_ANOMALY":351.1817,"EPHEMERIS_TYPE":0,"CLASSIFICATION_TYPE":"U","NORAD_CAT_ID":48274,"ELEMENT_SET_NO":999,"REV_AT_EPOCH":27988,"BSTAR":0.00023638183,"MEAN_MOTION_DOT":0.00020484,"MEAN_MOTION_DDOT":0},{"OBJECT_NAME":"ISS (NAUKA)","OBJECT_ID":"2021-066A","EPOCH":"2026-03-24T03:55:35.551488","MEAN_MOTION":15.48514008,"ECCENTRICITY":0.00062677,"INCLINATION":51.6345,"RA_OF_ASC_NODE":0.8084,"ARG_OF_PERICENTER":226.2093,"MEAN_ANOMALY":133.8378,"EPHEMERIS_TYPE":0,"CLASSIFICATION_TYPE":"U","NORAD_CAT_ID":49044,"ELEMENT_SET_NO":999,"REV_AT_EPOCH":55747,"BSTAR":0.0002692749,"MEAN_MOTION_DOT":0.0001417,"MEAN_MOTION_DDOT":0},{"OBJECT_NAME":"FREGAT DEB","OBJECT_ID":"2011-037PF","EPOCH":"2026-03-24T04:30:30.049920","MEAN_MOTION":12.40651154,"ECCENTRICITY":0.09627183,"INCLINATION":51.6455,"RA_OF_ASC_NODE":257.2233,"ARG_OF_PERICENTER":92.6627,"MEAN_ANOMALY":278.4636,"EPHEMERIS_TYPE":0,"CLASSIFICATION_TYPE":"U","NORAD_CAT_ID":49271,"ELEMENT_SET_NO":999,"REV_AT_EPOCH":21449,"BSTAR":0.020666749,"MEAN_MOTION_DOT":0.00014609,"MEAN_MOTION_DDOT":0},{"OBJECT_NAME":"CSS (WENTIAN)","OBJECT_ID":"2022-085A","EPOCH":"2026-03-24T05:42:53.103168","MEAN_MOTION":15.61417953,"ECCENTRICITY":0.0004823,"INCLINATION":41.4662,"RA_OF_ASC_NODE":119.5892,"ARG_OF_PERICENTER":8.9107,"MEAN_ANOMALY":351.1817,"EPHEMERIS_TYPE":0,"CLASSIFICATION_TYPE":"U","NORAD_CAT_ID":53239,"ELEMENT_SET_NO":999,"REV_AT_EPOCH":27910,"BSTAR":0.00023638183,"MEAN_MOTION_DOT":0.00020484,"MEAN_MOTION_DDOT":0},{"OBJECT_NAME":"CSS (MENGTIAN)","OBJECT_ID":"2022-143A","EPOCH":"2026-03-24T05:42:53.103168","MEAN_MOTION":15.61417953,"ECCENTRICITY":0.0004823,"INCLINATION":41.4662,"RA_OF_ASC_NODE":119.5892,"ARG_OF_PERICENTER":8.9107,"MEAN_ANOMALY":351.1817,"EPHEMERIS_TYPE":0,"CLASSIFICATION_TYPE":"U","NORAD_CAT_ID":54216,"ELEMENT_SET_NO":999,"REV_AT_EPOCH":27910,"BSTAR":0.00023638183,"MEAN_MOTION_DOT":0.00020484,"MEAN_MOTION_DDOT":0},{"OBJECT_NAME":"TIANZHOU-9","OBJECT_ID":"2025-149A","EPOCH":"2026-03-24T05:42:53.103168","MEAN_MOTION":15.61417953,"ECCENTRICITY":0.0004823,"INCLINATION":41.4662,"RA_OF_ASC_NODE":119.5892,"ARG_OF_PERICENTER":8.9107,"MEAN_ANOMALY":351.1817,"EPHEMERIS_TYPE":0,"CLASSIFICATION_TYPE":"U","NORAD_CAT_ID":64786,"ELEMENT_SET_NO":999,"REV_AT_EPOCH":27910,"BSTAR":0.00023638183,"MEAN_MOTION_DOT":0.00020484,"MEAN_MOTION_DDOT":0},{"OBJECT_NAME":"PROGRESS-MS 32","OBJECT_ID":"2025-204A","EPOCH":"2026-03-24T03:55:35.551488","MEAN_MOTION":15.48514008,"ECCENTRICITY":0.00062677,"INCLINATION":51.6345,"RA_OF_ASC_NODE":0.8084,"ARG_OF_PERICENTER":226.2093,"MEAN_ANOMALY":133.8378,"EPHEMERIS_TYPE":0,"CLASSIFICATION_TYPE":"U","NORAD_CAT_ID":65586,"ELEMENT_SET_NO":999,"REV_AT_EPOCH":55450,"BSTAR":0.0002692749,"MEAN_MOTION_DOT":0.0001417,"MEAN_MOTION_DDOT":0},{"OBJECT_NAME":"YOTSUBA-KULOVER","OBJECT_ID":"1998-067XN","EPOCH":"2026-03-23T23:07:06.848544","MEAN_MOTION":15.88031375,"ECCENTRICITY":0.0005099,"INCLINATION":51.6197,"RA_OF_ASC_NODE":342.8745,"ARG_OF_PERICENTER":174.2801,"MEAN_ANOMALY":185.8263,"EPHEMERIS_TYPE":0,"CLASSIFICATION_TYPE":"U","NORAD_CAT_ID":65941,"ELEMENT_SET_NO":999,"REV_AT_EPOCH":2576,"BSTAR":0.0011505657,"MEAN_MOTION_DOT":0.00332191,"MEAN_MOTION_DDOT":0},{"OBJECT_NAME":"BOTAN","OBJECT_ID":"1998-067XQ","EPOCH":"2026-03-23T23:19:51.733056","MEAN_MOTION":15.87345825,"ECCENTRICITY":0.00056918,"INCLINATION":51.6228,"RA_OF_ASC_NODE":342.9564,"ARG_OF_PERICENTER":173.8079,"MEAN_ANOMALY":186.2997,"EPHEMERIS_TYPE":0,"CLASSIFICATION_TYPE":"U","NORAD_CAT_ID":65943,"ELEMENT_SET_NO":999,"REV_AT_EPOCH":2576,"BSTAR":0.0011097541,"MEAN_MOTION_DOT":0.00308939,"MEAN_MOTION_DDOT":0},{"OBJECT_NAME":"HRC MONOBLOCK CAMERA","OBJECT_ID":"1998-067XR","EPOCH":"2026-03-24T00:32:11.922144","MEAN_MOTION":15.63725759,"ECCENTRICITY":0.00038604,"INCLINATION":51.6288,"RA_OF_ASC_NODE":353.1138,"ARG_OF_PERICENTER":158.8217,"MEAN_ANOMALY":201.2938,"EPHEMERIS_TYPE":0,"CLASSIFICATION_TYPE":"U","NORAD_CAT_ID":66052,"ELEMENT_SET_NO":999,"REV_AT_EPOCH":2463,"BSTAR":0.00052922259,"MEAN_MOTION_DOT":0.00050192,"MEAN_MOTION_DDOT":0},{"OBJECT_NAME":"HTV-X1","OBJECT_ID":"2025-241A","EPOCH":"2026-03-24T04:37:03.354816","MEAN_MOTION":15.32404592,"ECCENTRICITY":0.00074036,"INCLINATION":51.6371,"RA_OF_ASC_NODE":3.2073,"ARG_OF_PERICENTER":227.4114,"MEAN_ANOMALY":132.6244,"EPHEMERIS_TYPE":0,"CLASSIFICATION_TYPE":"U","NORAD_CAT_ID":66174,"ELEMENT_SET_NO":999,"REV_AT_EPOCH":2316,"BSTAR":0.00046147491,"MEAN_MOTION_DOT":0.00014323,"MEAN_MOTION_DDOT":0},{"OBJECT_NAME":"SZ-21 MODULE","OBJECT_ID":"2025-246C","EPOCH":"2026-03-23T04:26:13.491168","MEAN_MOTION":15.69572241,"ECCENTRICITY":6.541e-5,"INCLINATION":41.4734,"RA_OF_ASC_NODE":120.2206,"ARG_OF_PERICENTER":218.7155,"MEAN_ANOMALY":141.364,"EPHEMERIS_TYPE":0,"CLASSIFICATION_TYPE":"U","NORAD_CAT_ID":66515,"ELEMENT_SET_NO":999,"REV_AT_EPOCH":2019,"BSTAR":0.00035990835,"MEAN_MOTION_DOT":0.00043706,"MEAN_MOTION_DDOT":0},{"OBJECT_NAME":"SHENZHOU-22","OBJECT_ID":"2025-272A","EPOCH":"2026-03-24T05:42:53.103168","MEAN_MOTION":15.61417953,"ECCENTRICITY":0.0004823,"INCLINATION":41.4662,"RA_OF_ASC_NODE":119.5892,"ARG_OF_PERICENTER":8.9107,"MEAN_ANOMALY":351.1817,"EPHEMERIS_TYPE":0,"CLASSIFICATION_TYPE":"U","NORAD_CAT_ID":66645,"ELEMENT_SET_NO":999,"REV_AT_EPOCH":27910,"BSTAR":0.00023638183,"MEAN_MOTION_DOT":0.00020484,"MEAN_MOTION_DDOT":0},{"OBJECT_NAME":"SOYUZ-MS 28","OBJECT_ID":"2025-275A","EPOCH":"2026-03-24T03:55:35.551488","MEAN_MOTION":15.48514008,"ECCENTRICITY":0.00062677,"INCLINATION":51.6345,"RA_OF_ASC_NODE":0.8084,"ARG_OF_PERICENTER":226.2093,"MEAN_ANOMALY":133.8378,"EPHEMERIS_TYPE":0,"CLASSIFICATION_TYPE":"U","NORAD_CAT_ID":66664,"ELEMENT_SET_NO":999,"REV_AT_EPOCH":55771,"BSTAR":0.0002692749,"MEAN_MOTION_DOT":0.0001417,"MEAN_MOTION_DDOT":0}]
